IRIDIUM 154             
1 43574U 18061F   26179.60387138  .00000034  00000+0  51957-5 0  9998
2 43574  86.3952  52.0328 0002194  89.3168 270.8279 14.34217610415047
IRIDIUM 163             
1 43575U 18061G   26179.58484370  .00000077  00000+0  20518-4 0  9997
2 43575  86.3950  51.9557 0002190  83.7667 276.3778 14.34217838415010
IRIDIUM 156             
1 43576U 18061H   26179.62924495  .00000226  00000+0  73525-4 0  9992
2 43576  86.3950  51.9444 0002016  86.2506 273.8921 14.34219493415014
IRIDIUM 164             
1 43577U 18061J   26179.61021388  .00000041  00000+0  76339-5 0  9993
2 43577  86.3952  51.9929 0002228  90.1508 269.9943 14.34217814415055
IRIDIUM 159             
1 43578U 18061K   26179.64826998  .00000030  00000+0  36552-5 0  9998
2 43578  86.3948  51.9135 0002224  84.2668 275.8781 14.34217546415022
IRIDIUM 180             
1 43922U 19002A   26179.50822838  .00000049  00000+0  10335-4 0  9991
2 43922  86.3974 348.8640 0002234  89.4891 270.6561 14.34217830390611
IRIDIUM 176             
1 43923U 19002B   26179.50956917  .00000732  00000+0  11231-3 0  9992
2 43923  86.6095 348.8052 0002407  88.4647 271.6846 14.72228519400916
IRIDIUM 168             
1 43924U 19002C   26179.50188175  .00000099  00000+0  28364-4 0  9998
2 43924  86.3977 348.9441 0002227  90.3005 269.8446 14.34217027390593
IRIDIUM 173             
1 43925U 19002D   26179.55896920  .00000024  00000+0  14492-5 0  9994
2 43925  86.3973 348.8087 0002174  89.2229 270.9216 14.34217751390582
IRIDIUM 169             
1 43926U 19002E   26179.58983248  .00000262  00000+0  79248-4 0  9991
2 43926  86.4218  20.4250 0001657  84.6092 275.5296 14.38608413391867
IRIDIUM 172             
1 43927U 19002F   26179.55262609  .00000028  00000+0  27578-5 0  9990
2 43927  86.3975 348.8194 0002229  89.4780 270.6671 14.34217085390593
IRIDIUM 175             
1 43928U 19002G   26179.57414968  .00000306  00000+0  84294-4 0  9996
2 43928  86.4518 285.7611 0003922 149.7848 210.3580 14.43618769400627
IRIDIUM 171             
1 43929U 19002H   26179.53359853  .00000016  00000+0 -11779-5 0  9992
2 43929  86.3981 349.1348 0001997  94.1662 265.9762 14.34217560390585
IRIDIUM 170             
1 43930U 19002J   26179.58371422  .00000740  00000+0  11352-3 0  9993
2 43930  86.6095 348.7765 0002469  85.6177 274.5322 14.72229221400933
IRIDIUM 167             
1 43931U 19002K   26179.52725581  .00000002  00000+0 -65158-5 0  9994
2 43931  86.3972 348.8526 0001895  97.9507 262.1904 14.34217447390589
IRIDIUM 181             
1 56726U 23068S   26179.61513509  .00000282  00000+0  77694-4 0  9998
2 56726  86.4488  52.0129 0002432  87.1886 272.9594 14.43311941164082
IRIDIUM 177             
1 56727U 23068T   26179.47714773  .00000868  00000+0  11130-3 0  9991
2 56727  86.1972 323.4290 0002331  90.2017 269.9471 14.80037324168031
IRIDIUM 174             
1 56728U 23068U   26179.50339607  .00000768  00000+0  11788-3 0  9993
2 56728  86.6103 348.9586 0002353  80.3946 279.7537 14.72236771167688
IRIDIUM 178             
1 56729U 23068V   26179.60132476  .00000748  00000+0  95450-4 0  9997
2 56729  86.6536  20.5890 0002457  87.4800 272.6703 14.80038636168050
IRIDIUM 179             
1 56730U 23068W   26179.59606777  .00000534  00000+0  67048-4 0  9992
2 56730  86.6767  29.6051 0002439  88.0868 272.0632 14.80056204168054
