OBJECT_NAME,OBJECT_ID,EPOCH,MEAN_MOTION,ECCENTRICITY,INCLINATION,RA_OF_ASC_NODE,ARG_OF_PERICENTER,MEAN_ANOMALY,EPHEMERIS_TYPE,CLASSIFICATION_TYPE,NORAD_CAT_ID,ELEMENT_SET_NO,REV_AT_EPOCH,BSTAR,MEAN_MOTION_DOT,MEAN_MOTION_DDOT
IRIDIUM 154,2018-061F,2026-06-28T14:29:34.487232,14.34217610,.00021941,86.3952,52.0328,89.3168,270.8279,0,U,43574,999,41504,.5195705E-5,.34E-6,0
IRIDIUM 163,2018-061G,2026-06-28T14:02:10.495680,14.34217838,.00021902,86.3950,51.9557,83.7667,276.3778,0,U,43575,999,41501,.20517714E-4,.77E-6,0
IRIDIUM 156,2018-061H,2026-06-28T15:06:06.763680,14.34219493,.00020164,86.3950,51.9444,86.2506,273.8921,0,U,43576,999,41501,.73524584E-4,.226E-5,0
IRIDIUM 164,2018-061J,2026-06-28T14:38:42.479232,14.34217814,.00022286,86.3952,51.9929,90.1508,269.9943,0,U,43577,999,41505,.7633919E-5,.41E-6,0
IRIDIUM 159,2018-061K,2026-06-28T15:33:30.526272,14.34217546,.0002224,86.3948,51.9135,84.2668,275.8781,0,U,43578,999,41502,.3655244E-5,.3E-6,0
IRIDIUM 180,2019-002A,2026-06-28T12:11:50.932032,14.34217830,.00022346,86.3974,348.8640,89.4891,270.6561,0,U,43922,999,39061,.10334702E-4,.49E-6,0
IRIDIUM 176,2019-002B,2026-06-28T12:13:46.776288,14.72228519,.00024078,86.6095,348.8052,88.4647,271.6846,0,U,43923,999,40091,.11231111E-3,.732E-5,0
IRIDIUM 168,2019-002C,2026-06-28T12:02:42.583200,14.34217027,.00022274,86.3977,348.9441,90.3005,269.8446,0,U,43924,999,39059,.28363928E-4,.99E-6,0
IRIDIUM 173,2019-002D,2026-06-28T13:24:54.938880,14.34217751,.00021747,86.3973,348.8087,89.2229,270.9216,0,U,43925,999,39058,.1449202E-5,.24E-6,0
IRIDIUM 169,2019-002E,2026-06-28T14:09:21.526272,14.38608413,.0001657,86.4218,20.4250,84.6092,275.5296,0,U,43926,999,39186,.79247587E-4,.262E-5,0
IRIDIUM 172,2019-002F,2026-06-28T13:15:46.894176,14.34217085,.00022299,86.3975,348.8194,89.4780,270.6671,0,U,43927,999,39059,.2757802E-5,.28E-6,0
IRIDIUM 175,2019-002G,2026-06-28T13:46:46.532352,14.43618769,.00039227,86.4518,285.7611,149.7848,210.3580,0,U,43928,999,40062,.84293662E-4,.306E-5,0
IRIDIUM 171,2019-002H,2026-06-28T12:48:22.912992,14.34217560,.00019977,86.3981,349.1348,94.1662,265.9762,0,U,43929,999,39058,-.117787E-5,.16E-6,0
IRIDIUM 170,2019-002J,2026-06-28T14:00:32.908608,14.72229221,.00024696,86.6095,348.7765,85.6177,274.5322,0,U,43930,999,40093,.11352086E-3,.74E-5,0
IRIDIUM 167,2019-002K,2026-06-28T12:39:14.901984,14.34217447,.00018955,86.3972,348.8526,97.9507,262.1904,0,U,43931,999,39058,-.6515776E-5,.2E-7,0
IRIDIUM 181,2023-068S,2026-06-28T14:45:47.671776,14.43311941,.00024327,86.4488,52.0129,87.1886,272.9594,0,U,56726,999,16408,.7769441E-4,.282E-5,0
IRIDIUM 177,2023-068T,2026-06-28T11:27:05.563872,14.80037324,.00023312,86.1972,323.4290,90.2017,269.9471,0,U,56727,999,16803,.11130236E-3,.868E-5,0
IRIDIUM 174,2023-068U,2026-06-28T12:04:53.420448,14.72236771,.00023536,86.6103,348.9586,80.3946,279.7537,0,U,56728,999,16768,.11788429E-3,.768E-5,0
IRIDIUM 178,2023-068V,2026-06-28T14:25:54.459264,14.80038636,.00024574,86.6536,20.5890,87.4800,272.6703,0,U,56729,999,16805,.954498E-4,.748E-5,0
IRIDIUM 179,2023-068W,2026-06-28T14:18:20.255328,14.80056204,.00024398,86.6767,29.6051,88.0868,272.0632,0,U,56730,999,16805,.67048027E-4,.534E-5,0
